start=new Date('2022-04-15T00:00:00.000Z').valueOf();
sats=[{"OBJECT_ID":"2022-016W","OBJECT_NAME":"STARLINK-3450","RA_OF_ASC_NODE":"241.0774","MEAN_MOTION":"15.58504329","MEAN_MOTION_DDOT":"0.0000000000000","INCLINATION":"53.2171","NORAD_CAT_ID":"51734","MEAN_ANOMALY":"45.8387","RCS_SIZE":"LARGE","CENTER_NAME":"EARTH","GP_ID":"201233805","REF_FRAME":"TEME","MEAN_MOTION_DOT":"-0.00714287","TLE_LINE2":"2 51734  53.2171 241.0774 0001322  49.5684  45.8387 15.58504329  9499","ARG_OF_PERICENTER":"49.5684","SITE":"AFETR","FILE":"3401853","LAUNCH_DATE":"2022-02-21","EPHEMERIS_TYPE":"0","TIME_SYSTEM":"UTC","PERIOD":"92.396","ELEMENT_SET_NO":"999","ECCENTRICITY":"0.00013220","COUNTRY_CODE":"US","REV_AT_EPOCH":"949","BSTAR":"-0.01002700000000","TLE_LINE1":"1 51734U 22016W   22104.91667824 -.00714287  00000-0 -10027-1 0  9995","PERIAPSIS":"391.092","DECAY_DATE":null,"EPOCH":"2022-04-14T22:00:00.999936","OBJECT_TYPE":"PAYLOAD","MEAN_ELEMENT_THEORY":"SGP4","APOAPSIS":"392.882","SEMIMAJOR_AXIS":"6770.122","CLASSIFICATION_TYPE":"U"},{"APOAPSIS":"386.791","MEAN_ELEMENT_THEORY":"SGP4","SEMIMAJOR_AXIS":"6763.985","CLASSIFICATION_TYPE":"U","EPOCH":"2022-04-14T22:00:00.999936","OBJECT_TYPE":"PAYLOAD","COUNTRY_CODE":"US","BSTAR":"-0.00926850000000","REV_AT_EPOCH":"370","TLE_LINE1":"1 51735U 22016X   22104.91667824 -.00716084  00000-0 -92685-2 0  9994","PERIAPSIS":"384.910","DECAY_DATE":null,"EPHEMERIS_TYPE":"0","TIME_SYSTEM":"UTC","PERIOD":"92.271","ELEMENT_SET_NO":"999","ECCENTRICITY":"0.00013910","ARG_OF_PERICENTER":"53.0124","TLE_LINE2":"2 51735  53.2171 241.0815 0001391  53.0124 109.2201 15.60625763  3708","SITE":"AFETR","FILE":"3401977","LAUNCH_DATE":"2022-02-21","RCS_SIZE":"MEDIUM","CENTER_NAME":"EARTH","GP_ID":"201260148","REF_FRAME":"TEME","MEAN_MOTION_DOT":"-0.00716084","MEAN_MOTION_DDOT":"0.0000000000000","INCLINATION":"53.2171","NORAD_CAT_ID":"51735","MEAN_ANOMALY":"109.2201","OBJECT_ID":"2022-016X","MEAN_MOTION":"15.60625763","OBJECT_NAME":"STARLINK-3517","RA_OF_ASC_NODE":"241.0815"},{"MEAN_MOTION_DDOT":"0.0000000000000","INCLINATION":"53.2171","NORAD_CAT_ID":"51736","MEAN_ANOMALY":"57.7653","OBJECT_ID":"2022-016Y","OBJECT_NAME":"STARLINK-3447","MEAN_MOTION":"15.58760003","RA_OF_ASC_NODE":"241.0768","ARG_OF_PERICENTER":"47.6873","TLE_LINE2":"2 51736  53.2171 241.0768 0001383  47.6873  57.7653 15.58760003  9514","SITE":"AFETR","FILE":"3401858","LAUNCH_DATE":"2022-02-21","RCS_SIZE":"LARGE","GP_ID":"201233868","CENTER_NAME":"EARTH","REF_FRAME":"TEME","MEAN_MOTION_DOT":"-0.00714498","COUNTRY_CODE":"US","REV_AT_EPOCH":"951","BSTAR":"-0.00993290000000","TLE_LINE1":"1 51736U 22016Y   22104.91667824 -.00714498  00000-0 -99329-2 0  9994","PERIAPSIS":"390.311","DECAY_DATE":null,"EPHEMERIS_TYPE":"0","TIME_SYSTEM":"UTC","PERIOD":"92.381","ECCENTRICITY":"0.00013830","ELEMENT_SET_NO":"999","APOAPSIS":"392.183","MEAN_ELEMENT_THEORY":"SGP4","SEMIMAJOR_AXIS":"6769.382","CLASSIFICATION_TYPE":"U","EPOCH":"2022-04-14T22:00:00.999936","OBJECT_TYPE":"PAYLOAD"},{"FILE":"3401853","SITE":"AFETR","TLE_LINE2":"2 51737  53.2171 241.0774 0001161  62.1800  28.1469 15.58376522  9446","ARG_OF_PERICENTER":"62.1800","LAUNCH_DATE":"2022-02-21","CENTER_NAME":"EARTH","GP_ID":"201234300","RCS_SIZE":"LARGE","MEAN_MOTION_DOT":"-0.00714203","REF_FRAME":"TEME","NORAD_CAT_ID":"51737","INCLINATION":"53.2171","MEAN_MOTION_DDOT":"0.0000000000000","MEAN_ANOMALY":"28.1469","OBJECT_ID":"2022-016Z","OBJECT_NAME":"STARLINK-3509","MEAN_MOTION":"15.58376522","RA_OF_ASC_NODE":"241.0774","SEMIMAJOR_AXIS":"6770.492","APOAPSIS":"393.143","MEAN_ELEMENT_THEORY":"SGP4","CLASSIFICATION_TYPE":"U","OBJECT_TYPE":"PAYLOAD","EPOCH":"2022-04-14T22:00:00.999936","TLE_LINE1":"1 51737U 22016Z   22104.91667824 -.00714203  00000-0 -10075-1 0  9999","BSTAR":"-0.01007500000000","COUNTRY_CODE":"US","REV_AT_EPOCH":"944","DECAY_DATE":null,"PERIAPSIS":"391.571","PERIOD":"92.404","TIME_SYSTEM":"UTC","EPHEMERIS_TYPE":"0","ECCENTRICITY":"0.00011610","ELEMENT_SET_NO":"999"},{"APOAPSIS":"391.462","MEAN_ELEMENT_THEORY":"SGP4","SEMIMAJOR_AXIS":"6768.642","CLASSIFICATION_TYPE":"U","EPOCH":"2022-04-14T22:00:00.999936","OBJECT_TYPE":"PAYLOAD","BSTAR":"-0.00983950000000","COUNTRY_CODE":"US","REV_AT_EPOCH":"949","TLE_LINE1":"1 51738U 22016AA  22104.91667824 -.00714705  00000-0 -98395-2 0  9999","PERIAPSIS":"389.551","DECAY_DATE":null,"EPHEMERIS_TYPE":"0","TIME_SYSTEM":"UTC","PERIOD":"92.366","ELEMENT_SET_NO":"999","ECCENTRICITY":"0.00014120","TLE_LINE2":"2 51738  53.2171 241.0758 0001412  46.7699  68.5743 15.59015684  9490","ARG_OF_PERICENTER":"46.7699","SITE":"AFETR","FILE":"3401855","LAUNCH_DATE":"2022-02-21","RCS_SIZE":"LARGE","CENTER_NAME":"EARTH","GP_ID":"201233826","REF_FRAME":"TEME","MEAN_MOTION_DOT":"-0.00714705","MEAN_MOTION_DDOT":"0.0000000000000","INCLINATION":"53.2171","NORAD_CAT_ID":"51738","MEAN_ANOMALY":"68.5743","OBJECT_ID":"2022-016AA","MEAN_MOTION":"15.59015684","OBJECT_NAME":"STARLINK-3515","RA_OF_ASC_NODE":"241.0758"},{"SEMIMAJOR_AXIS":"6769.752","MEAN_ELEMENT_THEORY":"SGP4","APOAPSIS":"392.655","CLASSIFICATION_TYPE":"U","EPOCH":"2022-04-14T22:00:00.999936","OBJECT_TYPE":"PAYLOAD","BSTAR":"-0.00997600000000","COUNTRY_CODE":"US","REV_AT_EPOCH":"950","TLE_LINE1":"1 51739U 22016AB  22104.91667824 -.00714170  00000-0 -99760-2 0  9993","DECAY_DATE":null,"PERIAPSIS":"390.579","TIME_SYSTEM":"UTC","PERIOD":"92.389","EPHEMERIS_TYPE":"0","ELEMENT_SET_NO":"999","ECCENTRICITY":"0.00015330","FILE":"3401853","ARG_OF_PERICENTER":"39.6443","TLE_LINE2":"2 51739  53.2171 241.0769 0001533  39.6443  60.8048 15.58632043  9503","SITE":"AFETR","LAUNCH_DATE":"2022-02-21","GP_ID":"201233799","CENTER_NAME":"EARTH","RCS_SIZE":"LARGE","MEAN_MOTION_DOT":"-0.00714170","REF_FRAME":"TEME","INCLINATION":"53.2171","NORAD_CAT_ID":"51739","MEAN_MOTION_DDOT":"0.0000000000000","MEAN_ANOMALY":"60.8048","OBJECT_ID":"2022-016AB","RA_OF_ASC_NODE":"241.0769","OBJECT_NAME":"STARLINK-3516","MEAN_MOTION":"15.58632043"},{"OBJECT_TYPE":"PAYLOAD","EPOCH":"2022-04-14T22:00:00.999936","CLASSIFICATION_TYPE":"U","SEMIMAJOR_AXIS":"6767.914","MEAN_ELEMENT_THEORY":"SGP4","APOAPSIS":"390.686","ECCENTRICITY":"0.00013410","ELEMENT_SET_NO":"999","PERIOD":"92.351","TIME_SYSTEM":"UTC","EPHEMERIS_TYPE":"0","DECAY_DATE":null,"PERIAPSIS":"388.871","TLE_LINE1":"1 51740U 22016AC  22104.91667824 -.00715012  00000-0 -97501-2 0  9992","BSTAR":"-0.00975010000000","COUNTRY_CODE":"US","REV_AT_EPOCH":"945","MEAN_MOTION_DOT":"-0.00715012","REF_FRAME":"TEME","CENTER_NAME":"EARTH","GP_ID":"201233803","RCS_SIZE":"LARGE","LAUNCH_DATE":"2022-02-21","FILE":"3401853","SITE":"AFETR","ARG_OF_PERICENTER":"52.5937","TLE_LINE2":"2 51740  53.2171 241.0735 0001341  52.5937  72.9887 15.59267236  9455","OBJECT_NAME":"STARLINK-3500","MEAN_MOTION":"15.59267236","RA_OF_ASC_NODE":"241.0735","OBJECT_ID":"2022-016AC","MEAN_ANOMALY":"72.9887","NORAD_CAT_ID":"51740","INCLINATION":"53.2171","MEAN_MOTION_DDOT":"0.0000000000000"},{"TLE_LINE2":"2 51741  53.2171 241.0761 0001360  50.1660  60.2516 15.58887833  9496","ARG_OF_PERICENTER":"50.1660","SITE":"AFETR","FILE":"3401853","LAUNCH_DATE":"2022-02-21","RCS_SIZE":"LARGE","CENTER_NAME":"EARTH","GP_ID":"201234298","REF_FRAME":"TEME","MEAN_MOTION_DOT":"-0.00714547","MEAN_MOTION_DDOT":"0.0000000000000","INCLINATION":"53.2171","NORAD_CAT_ID":"51741","MEAN_ANOMALY":"60.2516","OBJECT_ID":"2022-016AD","OBJECT_NAME":"STARLINK-3520","MEAN_MOTION":"15.58887833","RA_OF_ASC_NODE":"241.0761","APOAPSIS":"391.797","MEAN_ELEMENT_THEORY":"SGP4","SEMIMAJOR_AXIS":"6769.012","CLASSIFICATION_TYPE":"U","EPOCH":"2022-04-14T22:00:00.999936","OBJECT_TYPE":"PAYLOAD","REV_AT_EPOCH":"949","COUNTRY_CODE":"US","BSTAR":"-0.00988540000000","TLE_LINE1":"1 51741U 22016AD  22104.91667824 -.00714547  00000-0 -98854-2 0  9997","PERIAPSIS":"389.956","DECAY_DATE":null,"EPHEMERIS_TYPE":"0","TIME_SYSTEM":"UTC","PERIOD":"92.374","ECCENTRICITY":"0.00013600","ELEMENT_SET_NO":"999"},{"COUNTRY_CODE":"US","REV_AT_EPOCH":"952","BSTAR":"-0.00970130000000","TLE_LINE1":"1 51742U 22016AE  22104.91667824 -.00714944  00000-0 -97013-2 0  9995","PERIAPSIS":"388.451","DECAY_DATE":null,"EPHEMERIS_TYPE":"0","TIME_SYSTEM":"UTC","PERIOD":"92.344","ELEMENT_SET_NO":"999","ECCENTRICITY":"0.00014150","MEAN_ELEMENT_THEORY":"SGP4","APOAPSIS":"390.367","SEMIMAJOR_AXIS":"6767.544","CLASSIFICATION_TYPE":"U","EPOCH":"2022-04-14T22:00:00.999936","OBJECT_TYPE":"PAYLOAD","MEAN_MOTION_DDOT":"0.0000000000000","INCLINATION":"53.2171","NORAD_CAT_ID":"51742","MEAN_ANOMALY":"81.5764","OBJECT_ID":"2022-016AE","RA_OF_ASC_NODE":"241.0728","OBJECT_NAME":"STARLINK-3521","MEAN_MOTION":"15.59394993","TLE_LINE2":"2 51742  53.2171 241.0728 0001415  48.8186  81.5764 15.59394993  9524","ARG_OF_PERICENTER":"48.8186","SITE":"AFETR","FILE":"3401853","LAUNCH_DATE":"2022-02-21","RCS_SIZE":"LARGE","GP_ID":"201233801","CENTER_NAME":"EARTH","REF_FRAME":"TEME","MEAN_MOTION_DOT":"-0.00714944"},{"OBJECT_TYPE":"PAYLOAD","EPOCH":"2022-04-14T22:00:00.999936","SEMIMAJOR_AXIS":"6728.020","MEAN_ELEMENT_THEORY":"SGP4","APOAPSIS":"351.059","CLASSIFICATION_TYPE":"U","PERIOD":"91.536","TIME_SYSTEM":"UTC","EPHEMERIS_TYPE":"0","ECCENTRICITY":"0.00017450","ELEMENT_SET_NO":"999","TLE_LINE1":"1 51743U 22016AF  22104.91667824  .00074638  00000-0  53248-3 0  9996","BSTAR":"0.00053248000000","COUNTRY_CODE":"US","REV_AT_EPOCH":"952","DECAY_DATE":null,"PERIAPSIS":"348.711","GP_ID":"201233804","CENTER_NAME":"EARTH","RCS_SIZE":"LARGE","MEAN_MOTION_DOT":"0.00074638","REF_FRAME":"TEME","FILE":"3401853","SITE":"AFETR","TLE_LINE2":"2 51743  53.2127 240.6432 0001745  36.9286 316.6205 15.73156287  9528","ARG_OF_PERICENTER":"36.9286","LAUNCH_DATE":"2022-02-21","OBJECT_ID":"2022-016AF","MEAN_MOTION":"15.73156287","OBJECT_NAME":"STARLINK-3512","RA_OF_ASC_NODE":"240.6432","NORAD_CAT_ID":"51743","INCLINATION":"53.2127","MEAN_MOTION_DDOT":"0.0000000000000","MEAN_ANOMALY":"316.6205"}];
